ONEWEB-0168             
1 48068U 21025AC  24063.70241340  .00000370  00000+0  97857-3 0  9990
2 48068  87.8964 126.5216 0001952 104.8118 255.3227 13.13467547143884
ONEWEB-0173             
1 48069U 21025AD  24064.45623958  .00000186  00000+0  47547-3 0  9999
2 48069  87.8962 126.3818 0001453 104.8725 255.2565 13.13468617144221
ONEWEB-0171             
1 48070U 21025AE  24064.18801776 -.00000177  00000+0 -51982-3 0  9997
2 48070  87.8965 126.4705 0001854 101.0600 259.0738 13.13467986144006
ONEWEB-0172             
1 48071U 21025AF  24064.24357279  .00000292  00000+0  76543-3 0  9995
2 48071  87.8965 126.4262 0001765 100.5716 259.5612 13.13468587144901
ONEWEB-0174             
1 48072U 21025AG  24064.45466042  .00000173  00000+0  43788-3 0  9991
2 48072  87.8964 126.3984 0002087 105.8441 254.2918 13.13471145144255
ONEWEB-0175             
1 48073U 21025AH  24063.72143465 -.00000176  00000+0 -51707-3 0  9997
2 48073  87.8958 126.5389 0001846  90.2747 269.8593 13.13467008143813
ONEWEB-0177             
1 48074U 21025AJ  24064.19118829 -.00000169  00000+0 -49846-3 0  9999
2 48074  87.8961 126.4516 0001769 114.4982 245.6331 13.13468636144061
ONEWEB-0178             
1 48075U 21025AK  24064.43733119 -.00000220  00000+0 -63756-3 0  9996
2 48075  87.8965 126.4134 0001818 107.4032 252.7296 13.13469311144144
